{"type": "FeatureCollection", "features": [{"type": "Feature", "properties": {"domain_id": "317408", "name": "PANCORAN"}, "geometry": {"type": "Polygon", "coordinates": [[[106.85166, -6.26211], [106.84324, -6.26259], [106.84406, -6.266], [106.83486, -6.26599], [106.83496, -6.26841], [106.83211, -6.26835], [106.83286, -6.26899], [106.83212, -6.27105], [106.83263, -6.27443], [106.82871, -6.27493], [106.82915, -6.26944], [106.8278, -6.26568], [106.82664, -6.26558], [106.82632, -6.26495], [106.82582, -6.26119], [106.82458, -6.26044], [106.82635, -6.25933], [106.82628, -6.25872], [106.8248, -6.25808], [106.82529, -6.25476], [106.82337, -6.25396], [106.82301, -6.25315], [106.83573, -6.2518], [106.83518, -6.24139], [106.83466, -6.2409], [106.84348, -6.24331], [106.86254, -6.24311], [106.86206, -6.24639], [106.86404, -6.24945], [106.86217, -6.25061], [106.86276, -6.25346], [106.86123, -6.25407], [106.86014, -6.25099], [106.85803, -6.25251], [106.85754, -6.25438], [106.85789, -6.25528], [106.85962, -6.2544], [106.86075, -6.25529], [106.85933, -6.25676], [106.86049, -6.25758], [106.85922, -6.26283], [106.85693, -6.26287], [106.8547, -6.26193], [106.85454, -6.26276], [106.85716, -6.26387], [106.85403, -6.26484], [106.85545, -6.26669], [106.85002, -6.26682], [106.85209, -6.26215], [106.85166, -6.26211]]]}}, {"type": "Feature", "properties": {"domain_id": "317406", "name": "CILANDAK"}, "geometry": {"type": "Polygon", "coordinates": [[[106.80695, -6.30209], [106.80922, -6.30504], [106.80844, -6.30571], [106.80854, -6.30814], [106.80683, -6.30903], [106.80771, -6.30923], [106.80852, -6.31051], [106.80792, -6.31111], [106.8084, -6.3126], [106.80792, -6.31323], [106.80921, -6.31484], [106.79576, -6.31515], [106.79271, -6.31582], [106.79054, -6.31477], [106.78964, -6.31628], [106.78477, -6.31553], [106.78436, -6.31643], [106.78327, -6.31661], [106.78285, -6.31588], [106.78, -6.31658], [106.77918, -6.31576], [106.77675, -6.3152], [106.77649, -6.31176], [106.77452, -6.312], [106.77445, -6.3113], [106.77537, -6.31047], [106.77329, -6.30953], [106.77498, -6.30834], [106.77391, -6.30672], [106.77549, -6.30616], [106.7748, -6.30478], [106.77558, -6.30397], [106.77451, -6.30326], [106.77306, -6.30477], [106.77348, -6.30308], [106.77154, -6.3032], [106.77088, -6.30214], [106.77315, -6.30151], [106.77148, -6.29948], [106.7737, -6.29951], [106.77384, -6.2987], [106.77321, -6.29815], [106.77124, -6.299], [106.77073, -6.29731], [106.76977, -6.29751], [106.77015, -6.29562], [106.7684, -6.29592], [106.76721, -6.2953], [106.76829, -6.29339], [106.76752, -6.29234], [106.76816, -6.29186], [106.76663, -6.29065], [106.76928, -6.28926], [106.77639, -6.28927], [106.77808, -6.28842], [106.78088, -6.29049], [106.78437, -6.29165], [106.78495, -6.29099], [106.7857, -6.2896], [106.78507, -6.28806], [106.79006, -6.28159], [106.78962, -6.27611], [106.79152, -6.27315], [106.7907, -6.26878], [106.78972, -6.26919], [106.78724, -6.26778], [106.78647, -6.26607], [106.78536, -6.26538], [106.78527, -6.26299], [106.79423, -6.26431], [106.79448, -6.2636], [106.79719, -6.2639], [106.79738, -6.26571], [106.80014, -6.26583], [106.80026, -6.26674], [106.81002, -6.26597], [106.81004, -6.26656], [106.81294, -6.26704], [106.81145, -6.27046], [106.81388, -6.27219], [106.81404, -6.27588], [106.81294, -6.27633], [106.8127, -6.27835], [106.81082, -6.27959], [106.80935, -6.2822], [106.80976, -6.28587], [106.80916, -6.28594], [106.80849, -6.28746], [106.80828, -6.28992], [106.80624, -6.29076], [106.80501, -6.29325], [106.80688, -6.29557], [106.805, -6.29806], [106.806, -6.29846], [106.80695, -6.30209]]]}}, {"type": "Feature", "properties": {"domain_id": "317404", "name": "PASAR MINGGU"}, "geometry": {"type": "Polygon", "coordinates": [[[106.83662, -6.30178], [106.83732, -6.30568], [106.83522, -6.31838], [106.83385, -6.31838], [106.83197, -6.32145], [106.82938, -6.32121], [106.82914, -6.32204], [106.82528, -6.32151], [106.82481, -6.31782], [106.81636, -6.31685], [106.81614, -6.31065], [106.8104, -6.31078], [106.80917, -6.31169], [106.80797, -6.31105], [106.80826, -6.30994], [106.80683, -6.30903], [106.80854, -6.30814], [106.80844, -6.30571], [106.80922, -6.30504], [106.80836, -6.30341], [106.80704, -6.30277], [106.806, -6.29846], [106.80501, -6.2981], [106.80561, -6.29669], [106.80689, -6.29573], [106.80501, -6.29325], [106.80624, -6.29076], [106.80828, -6.28992], [106.80849, -6.28746], [106.80916, -6.28594], [106.80976, -6.28587], [106.80935, -6.2822], [106.81082, -6.27959], [106.8127, -6.27835], [106.81294, -6.27633], [106.81402, -6.27593], [106.81391, -6.27306], [106.82105, -6.27428], [106.82175, -6.27166], [106.82374, -6.27076], [106.8252, -6.27135], [106.82458, -6.27018], [106.82565, -6.26866], [106.82537, -6.26765], [106.82653, -6.26618], [106.82735, -6.26646], [106.82763, -6.26563], [106.82916, -6.26949], [106.82871, -6.27493], [106.83254, -6.2745], [106.83212, -6.27105], [106.83286, -6.26899], [106.83211, -6.26835], [106.83496, -6.26841], [106.83486, -6.26599], [106.84406, -6.266], [106.84324, -6.26259], [106.85204, -6.26213], [106.85002, -6.26682], [106.85545, -6.26669], [106.85658, -6.2703], [106.85571, -6.27036], [106.85514, -6.26961], [106.85488, -6.27047], [106.85681, -6.27242], [106.85548, -6.27263], [106.85363, -6.27195], [106.8534, -6.27329], [106.85133, -6.27364], [106.85193, -6.27514], [106.85161, -6.27625], [106.84919, -6.27659], [106.84672, -6.27904], [106.84777, -6.28004], [106.85037, -6.27967], [106.8476, -6.28295], [106.84761, -6.28345], [106.84883, -6.2837], [106.84733, -6.28568], [106.84839, -6.288], [106.85124, -6.28843], [106.8508, -6.28974], [106.84935, -6.2905], [106.85068, -6.29286], [106.85127, -6.29284], [106.85182, -6.29113], [106.85439, -6.29043], [106.85231, -6.29447], [106.85406, -6.29388], [106.85428, -6.29604], [106.85076, -6.2958], [106.85052, -6.29673], [106.8521, -6.2979], [106.85098, -6.29794], [106.84459, -6.29686], [106.84083, -6.29528], [106.83978, -6.30302], [106.83662, -6.30178]]]}}, {"type": "Feature", "properties": {"domain_id": "317510", "name": "CIPAYUNG"}, "geometry": {"type": "Polygon", "coordinates": [[[106.91865, -6.34196], [106.91945, -6.34362], [106.91729, -6.3438], [106.91722, -6.34629], [106.9159, -6.34633], [106.91724, -6.34788], [106.91611, -6.34887], [106.91782, -6.35045], [106.91648, -6.35147], [106.91731, -6.35299], [106.91542, -6.35497], [106.91713, -6.35652], [106.91541, -6.35675], [106.91481, -6.35827], [106.9136, -6.35884], [106.91444, -6.35914], [106.91428, -6.36019], [106.91552, -6.36056], [106.91475, -6.36177], [106.91622, -6.36277], [106.91489, -6.36323], [106.9145, -6.3653], [106.91044, -6.36376], [106.90871, -6.36229], [106.9092, -6.36176], [106.90859, -6.36118], [106.90689, -6.36073], [106.9073, -6.35971], [106.90602, -6.35967], [106.9052, -6.36292], [106.89996, -6.36919], [106.90163, -6.36927], [106.90128, -6.37021], [106.8976, -6.36882], [106.89681, -6.36985], [106.89614, -6.36932], [106.89635, -6.37176], [106.89565, -6.37143], [106.88745, -6.3321], [106.8868, -6.31771], [106.88335, -6.30213], [106.89258, -6.30255], [106.89214, -6.29897], [106.89497, -6.29897], [106.89479, -6.29831], [106.8928, -6.29831], [106.89281, -6.29718], [106.89061, -6.29633], [106.88814, -6.29058], [106.89626, -6.28946], [106.90003, -6.28538], [106.90874, -6.28437], [106.90902, -6.28558], [106.91009, -6.2859], [106.90951, -6.28655], [106.91053, -6.28697], [106.90998, -6.28736], [106.91009, -6.2896], [106.90943, -6.29073], [106.9106, -6.28979], [106.91085, -6.29082], [106.91181, -6.29023], [106.91045, -6.2914], [106.91075, -6.2922], [106.91128, -6.29228], [106.91135, -6.29138], [106.91174, -6.29191], [106.91025, -6.29357], [106.91034, -6.2942], [106.91245, -6.29458], [106.91112, -6.29586], [106.91185, -6.29639], [106.91187, -6.29819], [106.91353, -6.29893], [106.91363, -6.29815], [106.91539, -6.29712], [106.91707, -6.29823], [106.91768, -6.29803], [106.91802, -6.29973], [106.91914, -6.29896], [106.9193, -6.30072], [106.92039, -6.30001], [106.92089, -6.30051], [106.92061, -6.30166], [106.92178, -6.30339], [106.92177, -6.30496], [106.92155, -6.30746], [106.92096, -6.30725], [106.92065, -6.30821], [106.92121, -6.30954], [106.92062, -6.31204], [106.92184, -6.31254], [106.92282, -6.31425], [106.92192, -6.31568], [106.92203, -6.31758], [106.92071, -6.31841], [106.92119, -6.31929], [106.92056, -6.32127], [106.92166, -6.32286], [106.92151, -6.32419], [106.92056, -6.32504], [106.91904, -6.32526], [106.91923, -6.32634], [106.91833, -6.32716], [106.92004, -6.32768], [106.92095, -6.33071], [106.92061, -6.33301], [106.91971, -6.33366], [106.91967, -6.33674], [106.91908, -6.33718], [106.91958, -6.33867], [106.91823, -6.33927], [106.91972, -6.34134], [106.91865, -6.34196]]]}}, {"type": "Feature", "properties": {"domain_id": "317504", "name": "KRAMATJATI"}, "geometry": {"type": "Polygon", "coordinates": [[[106.8781, -6.28767], [106.88236, -6.29809], [106.88416, -6.30559], [106.87927, -6.30641], [106.87921, -6.30535], [106.87817, -6.30495], [106.8771, -6.30226], [106.87505, -6.30191], [106.87454, -6.29988], [106.87368, -6.30071], [106.87312, -6.30038], [106.87279, -6.29904], [106.8741, -6.29804], [106.87385, -6.29723], [106.87442, -6.29726], [106.87415, -6.29649], [106.87517, -6.29588], [106.87526, -6.29506], [106.87384, -6.29464], [106.87373, -6.293], [106.87313, -6.29269], [106.87409, -6.2915], [106.87215, -6.28908], [106.87211, -6.28743], [106.87065, -6.287], [106.87202, -6.29355], [106.87098, -6.29748], [106.86915, -6.30005], [106.86672, -6.29918], [106.86696, -6.29833], [106.86553, -6.29794], [106.86484, -6.29393], [106.86038, -6.29398], [106.8595, -6.29224], [106.85573, -6.29283], [106.85586, -6.29449], [106.8552, -6.29345], [106.85453, -6.29352], [106.85459, -6.29434], [106.85372, -6.29376], [106.85242, -6.29478], [106.85439, -6.29043], [106.85182, -6.29113], [106.85079, -6.29292], [106.84935, -6.2905], [106.8508, -6.28974], [106.85122, -6.28839], [106.8503, -6.2879], [106.84912, -6.28847], [106.84765, -6.28691], [106.84739, -6.28537], [106.84883, -6.28367], [106.84754, -6.28309], [106.8504, -6.27976], [106.84777, -6.28004], [106.84679, -6.27888], [106.84919, -6.27659], [106.85161, -6.27625], [106.85193, -6.27514], [106.85133, -6.27364], [106.8534, -6.27329], [106.85363, -6.27195], [106.85548, -6.27263], [106.85681, -6.27242], [106.8549, -6.27054], [106.85514, -6.26961], [106.85571, -6.27036], [106.85658, -6.2703], [106.85531, -6.26613], [106.85395, -6.26507], [106.85716, -6.26387], [106.85427, -6.26231], [106.85524, -6.26175], [106.85671, -6.26282], [106.85926, -6.26274], [106.86049, -6.25758], [106.85933, -6.25676], [106.86075, -6.25529], [106.85962, -6.2544], [106.85789, -6.25528], [106.85754, -6.25438], [106.85803, -6.25251], [106.86014, -6.25099], [106.86123, -6.25407], [106.86276, -6.25346], [106.86217, -6.25061], [106.86404, -6.24945], [106.86206, -6.24639], [106.86254, -6.24311], [106.86528, -6.24339], [106.87527, -6.24641], [106.87239, -6.25453], [106.87324, -6.2596], [106.87269, -6.27238], [106.8736, -6.27674], [106.8781, -6.28767]]]}}, {"type": "Feature", "properties": {"domain_id": "317204", "name": "CILINCING"}, "geometry": {"type": "MultiPolygon", "coordinates": [[[[106.93944, -6.15189], [106.93577, -6.15853], [106.93353, -6.158], [106.93313, -6.1591], [106.92205, -6.16161], [106.92155, -6.15887], [106.91756, -6.15168], [106.9178, -6.1495], [106.9172, -6.14753], [106.91549, -6.14479], [106.91725, -6.13641], [106.91954, -6.13227], [106.91855, -6.13123], [106.91863, -6.12835], [106.91972, -6.12658], [106.92136, -6.12658], [106.92361, -6.12467], [106.92315, -6.12395], [106.92252, -6.12451], [106.92167, -6.1224], [106.92099, -6.12211], [106.92068, -6.11905], [106.91888, -6.11963], [106.91885, -6.11867], [106.91694, -6.11864], [106.91744, -6.10827], [106.91062, -6.10897], [106.90681, -6.10872], [106.90732, -6.10429], [106.91046, -6.10385], [106.91039, -6.10167], [106.90795, -6.10171], [106.90793, -6.10004], [106.90933, -6.09895], [106.91125, -6.09896], [106.91127, -6.09852], [106.91409, -6.09865], [106.91404, -6.10005], [106.91498, -6.09891], [106.91886, -6.0991], [106.91902, -6.10405], [106.91962, -6.10437], [106.92133, -6.10369], [106.91976, -6.10282], [106.92069, -6.10028], [106.92415, -6.09965], [106.92558, -6.09854], [106.92608, -6.09955], [106.92672, -6.0975], [106.93493, -6.09609], [106.93926, -6.09605], [106.93953, -6.09774], [106.94107, -6.09831], [106.94873, -6.09657], [106.95239, -6.0966], [106.94846, -6.09643], [106.94648, -6.09661], [106.94636, -6.09474], [106.94727, -6.09477], [106.94637, -6.09386], [106.94753, -6.09307], [106.94709, -6.09251], [106.94798, -6.09047], [106.94861, -6.09551], [106.95073, -6.09547], [106.95033, -6.09002], [106.95468, -6.0896], [106.95511, -6.09501], [106.9564, -6.09494], [106.95694, -6.09584], [106.95663, -6.0973], [106.95754, -6.0975], [106.95871, -6.09621], [106.95891, -6.09366], [106.96164, -6.09265], [106.96349, -6.09261], [106.96318, -6.09299], [106.96554, -6.09383], [106.96731, -6.09295], [106.96789, -6.09146], [106.96658, -6.09192], [106.96634, -6.09192], [106.96789, -6.09127], [106.96773, -6.09044], [106.96794, -6.08875], [106.96806, -6.09117], [106.97004, -6.09072], [106.97099, -6.09626], [106.97008, -6.09876], [106.97044, -6.11149], [106.96987, -6.11433], [106.97086, -6.12016], [106.97036, -6.12306], [106.97109, -6.12475], [106.97006, -6.12922], [106.97032, -6.13217], [106.96959, -6.13271], [106.97063, -6.13716], [106.97073, -6.14007], [106.97026, -6.1402], [106.97258, -6.14618], [106.97178, -6.14588], [106.97097, -6.14654], [106.9713, -6.14885], [106.97069, -6.15051], [106.9719, -6.15004], [106.97216, -6.15066], [106.97132, -6.15273], [106.97151, -6.15433], [106.96855, -6.15452], [106.96373, -6.15626], [106.96098, -6.15573], [106.961, -6.15833], [106.95863, -6.15888], [106.9586, -6.15952], [106.95716, -6.15845], [106.95427, -6.15766], [106.95322, -6.15834], [106.95269, -6.16006], [106.9522, -6.15989], [106.95089, -6.16219], [106.94879, -6.1623], [106.94867, -6.16314], [106.94438, -6.16294], [106.94433, -6.15502], [106.94038, -6.15523], [106.94016, -6.15135], [106.93944, -6.15189]]], [[[106.92332, -6.08993], [106.92295, -6.08931], [106.91944, -6.08954], [106.91856, -6.09023], [106.89983, -6.09024], [106.89906, -6.08988], [106.89903, -6.08231], [106.92337, -6.08217], [106.92339, -6.08878], [106.92388, -6.08951], [106.92332, -6.08993]]]]}}, {"type": "Feature", "properties": {"domain_id": "317409", "name": "JAGAKARSA"}, "geometry": {"type": "Polygon", "coordinates": [[[106.80648, -6.36348], [106.80331, -6.3636], [106.80035, -6.36474], [106.79381, -6.36431], [106.79297, -6.36331], [106.7937, -6.36235], [106.79361, -6.35999], [106.79249, -6.35918], [106.79249, -6.35827], [106.79321, -6.35693], [106.79309, -6.35507], [106.79402, -6.35441], [106.79249, -6.35235], [106.79404, -6.35097], [106.7924, -6.3485], [106.7954, -6.34597], [106.7968, -6.34645], [106.79742, -6.34489], [106.79949, -6.34305], [106.79958, -6.34138], [106.80017, -6.34094], [106.79869, -6.33822], [106.79908, -6.33311], [106.8018, -6.33341], [106.80129, -6.33166], [106.80361, -6.32976], [106.80339, -6.32777], [106.80423, -6.32685], [106.8041, -6.32521], [106.80501, -6.32365], [106.80636, -6.32373], [106.80603, -6.32273], [106.8072, -6.32252], [106.80646, -6.32139], [106.80734, -6.32093], [106.80731, -6.31942], [106.80816, -6.31881], [106.80779, -6.31735], [106.80924, -6.31551], [106.80898, -6.31404], [106.80793, -6.31327], [106.8084, -6.3126], [106.80794, -6.31107], [106.80917, -6.31169], [106.8104, -6.31078], [106.81614, -6.31065], [106.81636, -6.31685], [106.82481, -6.31782], [106.82528, -6.32151], [106.82914, -6.32204], [106.82938, -6.32121], [106.83197, -6.32145], [106.83385, -6.31838], [106.83522, -6.31838], [106.83732, -6.30568], [106.83661, -6.30177], [106.83978, -6.30302], [106.84083, -6.29528], [106.84483, -6.29692], [106.8521, -6.29791], [106.8517, -6.29936], [106.8496, -6.29897], [106.85159, -6.30111], [106.8525, -6.29992], [106.85474, -6.29952], [106.85466, -6.30313], [106.85852, -6.30544], [106.8574, -6.3064], [106.85771, -6.30786], [106.85683, -6.31002], [106.85727, -6.31074], [106.85827, -6.3108], [106.8581, -6.31156], [106.855, -6.31387], [106.85464, -6.31238], [106.85256, -6.31098], [106.85127, -6.31441], [106.85179, -6.31598], [106.84951, -6.31751], [106.84926, -6.31885], [106.84684, -6.31809], [106.84853, -6.31709], [106.8489, -6.31566], [106.84808, -6.31515], [106.84617, -6.31702], [106.84482, -6.31662], [106.84428, -6.31665], [106.84366, -6.31849], [106.84232, -6.31799], [106.84008, -6.31855], [106.83833, -6.32082], [106.83889, -6.32162], [106.84086, -6.32137], [106.84005, -6.32276], [106.84144, -6.32355], [106.843, -6.32571], [106.84298, -6.32709], [106.84222, -6.32769], [106.84131, -6.32678], [106.84021, -6.32931], [106.84347, -6.33159], [106.84244, -6.33222], [106.84019, -6.33219], [106.83985, -6.33283], [106.84036, -6.33843], [106.83926, -6.34034], [106.84066, -6.34102], [106.84087, -6.34233], [106.83963, -6.34251], [106.83812, -6.34124], [106.83551, -6.34398], [106.83649, -6.3448], [106.83803, -6.34334], [106.83971, -6.34377], [106.83928, -6.34613], [106.83766, -6.3471], [106.83923, -6.35177], [106.83557, -6.35183], [106.83629, -6.35508], [106.82811, -6.35603], [106.82156, -6.35562], [106.82101, -6.35619], [106.81934, -6.3557], [106.81839, -6.35659], [106.81598, -6.35611], [106.81504, -6.35943], [106.81359, -6.35905], [106.81356, -6.36016], [106.81261, -6.36074], [106.81177, -6.36254], [106.8112, -6.36222], [106.81036, -6.36397], [106.80648, -6.36348]]]}}, {"type": "Feature", "properties": {"domain_id": "317108", "name": "JOHAR BARU"}, "geometry": {"type": "Polygon", "coordinates": [[[106.85996, -6.18123], [106.86169, -6.18145], [106.86243, -6.18551], [106.86375, -6.18805], [106.8601, -6.18914], [106.85539, -6.19212], [106.84669, -6.18054], [106.845, -6.17552], [106.85768, -6.17399], [106.85996, -6.18123]]]}}, {"type": "Feature", "properties": {"domain_id": "317301", "name": "CENGKARENG"}, "geometry": {"type": "Polygon", "coordinates": [[[106.72806, -6.17642], [106.72751, -6.17765], [106.72664, -6.17757], [106.727, -6.17877], [106.72589, -6.17852], [106.72526, -6.17983], [106.72573, -6.18035], [106.72445, -6.18108], [106.72493, -6.18208], [106.72408, -6.18259], [106.7243, -6.18372], [106.72333, -6.18361], [106.7231, -6.18467], [106.722, -6.18481], [106.70059, -6.17684], [106.70327, -6.17476], [106.70513, -6.17483], [106.70649, -6.17393], [106.70865, -6.17464], [106.71054, -6.17416], [106.71164, -6.17187], [106.71262, -6.17127], [106.71367, -6.16797], [106.7166, -6.16574], [106.71645, -6.16073], [106.71538, -6.16064], [106.71548, -6.15809], [106.7161, -6.15808], [106.71575, -6.15517], [106.71901, -6.15343], [106.7179, -6.14543], [106.71832, -6.14356], [106.71746, -6.14338], [106.71669, -6.13847], [106.71663, -6.13359], [106.71786, -6.13242], [106.71675, -6.13117], [106.71968, -6.12882], [106.71926, -6.12825], [106.72058, -6.12667], [106.72125, -6.12697], [106.72328, -6.12595], [106.72443, -6.12635], [106.7286, -6.12326], [106.72984, -6.12271], [106.73059, -6.12334], [106.73161, -6.12143], [106.7387, -6.12689], [106.74453, -6.12979], [106.75069, -6.1343], [106.7682, -6.14065], [106.77566, -6.14164], [106.77504, -6.14521], [106.7668, -6.15987], [106.76108, -6.1582], [106.75942, -6.15919], [106.75319, -6.15791], [106.74771, -6.15828], [106.7476, -6.16046], [106.74877, -6.16566], [106.74667, -6.16501], [106.74671, -6.16588], [106.74576, -6.16566], [106.74554, -6.16641], [106.74438, -6.16669], [106.74396, -6.16592], [106.74369, -6.16652], [106.74259, -6.16646], [106.74161, -6.16806], [106.74056, -6.16749], [106.7404, -6.16859], [106.73945, -6.16789], [106.73883, -6.16975], [106.73845, -6.16884], [106.73782, -6.16893], [106.73823, -6.17061], [106.73764, -6.16991], [106.73638, -6.17034], [106.73564, -6.16993], [106.7357, -6.17096], [106.73429, -6.17174], [106.7335, -6.17148], [106.73191, -6.17291], [106.73146, -6.17387], [106.73191, -6.17438], [106.73076, -6.17503], [106.731, -6.17598], [106.7293, -6.17506], [106.72959, -6.17582], [106.72806, -6.17642]]]}}, {"type": "Feature", "properties": {"domain_id": "317201", "name": "PENJARINGAN"}, "geometry": {"type": "MultiPolygon", "coordinates": [[[[106.75124, -6.10108], [106.75228, -6.10094], [106.75607, -6.10369], [106.76094, -6.104], [106.76431, -6.10245], [106.76515, -6.09985], [106.76434, -6.10007], [106.76499, -6.09964], [106.76461, -6.09943], [106.7633, -6.10051], [106.76474, -6.09902], [106.76652, -6.10083], [106.7674, -6.10077], [106.7693, -6.10295], [106.77115, -6.10384], [106.77215, -6.10228], [106.77139, -6.1042], [106.77224, -6.1046], [106.77437, -6.10524], [106.77492, -6.10384], [106.77669, -6.10376], [106.77467, -6.10767], [106.77439, -6.11003], [106.77572, -6.10823], [106.77666, -6.1083], [106.77732, -6.10656], [106.77658, -6.10604], [106.78206, -6.10843], [106.78447, -6.10855], [106.78448, -6.10958], [106.78559, -6.10957], [106.78562, -6.10807], [106.7869, -6.10805], [106.78697, -6.10906], [106.78724, -6.10811], [106.79041, -6.10803], [106.79043, -6.10685], [106.794, -6.10523], [106.79449, -6.09812], [106.79679, -6.09709], [106.7965, -6.09509], [106.79558, -6.095], [106.79573, -6.09408], [106.79521, -6.09454], [106.79557, -6.09408], [106.79636, -6.09401], [106.79712, -6.09523], [106.79668, -6.10392], [106.79579, -6.10549], [106.79617, -6.10885], [106.79764, -6.1089], [106.79773, -6.10819], [106.7996, -6.10736], [106.79988, -6.10568], [106.80034, -6.10567], [106.79869, -6.09679], [106.80029, -6.09662], [106.80088, -6.10003], [106.80198, -6.09984], [106.80242, -6.10223], [106.80445, -6.10189], [106.80306, -6.09461], [106.80367, -6.09459], [106.80705, -6.11528], [106.80787, -6.11609], [106.80949, -6.1279], [106.81048, -6.13084], [106.80117, -6.13366], [106.80022, -6.13583], [106.80056, -6.14186], [106.79224, -6.14278], [106.78939, -6.14243], [106.78806, -6.14311], [106.77753, -6.14401], [106.77503, -6.14523], [106.77566, -6.14164], [106.7682, -6.14065], [106.75069, -6.1343], [106.74453, -6.12979], [106.7387, -6.12689], [106.73339, -6.12298], [106.72729, -6.11737], [106.72352, -6.11261], [106.71739, -6.10479], [106.71444, -6.09898], [106.71291, -6.09732], [106.71051, -6.09641], [106.71249, -6.09569], [106.71441, -6.09579], [106.71387, -6.09464], [106.71655, -6.09191], [106.71861, -6.09163], [106.71924, -6.09269], [106.721, -6.09144], [106.72229, -6.09196], [106.72563, -6.08908], [106.72685, -6.09027], [106.72612, -6.09222], [106.72725, -6.09217], [106.72726, -6.09356], [106.7315, -6.0977], [106.73341, -6.09583], [106.73637, -6.09859], [106.73661, -6.09978], [106.73742, -6.10027], [106.73815, -6.09942], [106.74063, -6.10095], [106.74055, -6.10177], [106.74116, -6.10202], [106.74186, -6.10123], [106.74512, -6.10177], [106.74583, -6.10057], [106.74642, -6.10132], [106.74681, -6.09987], [106.74851, -6.10026], [106.75015, -6.09941], [106.75059, -6.10121], [106.75124, -6.10108]]], [[[106.75644, -6.08185], [106.75115, -6.09756], [106.74259, -6.09936], [106.73825, -6.09739], [106.73789, -6.09589], [106.74123, -6.08864], [106.74788, -6.08112], [106.75141, -6.07432], [106.75297, -6.07429], [106.7577, -6.07708], [106.75644, -6.08185]]], [[[106.73481, -6.08258], [106.7384, -6.08624], [106.74023, -6.08764], [106.74063, -6.08736], [106.73795, -6.09401], [106.73659, -6.09534], [106.73548, -6.09502], [106.72878, -6.08829], [106.72886, -6.08674], [106.72981, -6.0854], [106.73407, -6.0818], [106.73454, -6.08169], [106.73481, -6.08258]]], [[[106.79451, -6.09467], [106.7936, -6.09652], [106.79133, -6.09581], [106.79099, -6.10428], [106.79341, -6.10457], [106.79259, -6.10535], [106.79194, -6.10479], [106.79176, -6.10575], [106.79086, -6.10483], [106.79127, -6.10624], [106.79038, -6.10665], [106.78996, -6.10051], [106.79089, -6.0942], [106.79178, -6.09313], [106.79361, -6.09286], [106.79489, -6.09337], [106.79451, -6.09467]]], [[[106.79342, -6.1022], [106.79338, -6.10381], [106.79141, -6.10382], [106.79136, -6.10034], [106.79326, -6.10022], [106.79342, -6.1022]]], [[[106.79221, -6.09675], [106.79357, -6.09721], [106.79315, -6.09977], [106.79123, -6.09958], [106.79158, -6.09693], [106.79221, -6.09675]]]]}}, {"type": "Feature", "properties": {"domain_id": "317102", "name": "SAWAH BESAR"}, "geometry": {"type": "Polygon", "coordinates": [[[106.83751, -6.15967], [106.84062, -6.17207], [106.83633, -6.17573], [106.83432, -6.17276], [106.83258, -6.17577], [106.83219, -6.1752], [106.83309, -6.1724], [106.82987, -6.17108], [106.83042, -6.16621], [106.82762, -6.16054], [106.82657, -6.14764], [106.82132, -6.13686], [106.8307, -6.13514], [106.831, -6.14007], [106.83544, -6.14283], [106.83715, -6.14605], [106.83842, -6.14176], [106.84408, -6.14496], [106.84312, -6.14657], [106.84347, -6.14725], [106.84115, -6.15092], [106.84111, -6.15292], [106.83952, -6.15448], [106.84041, -6.15817], [106.83736, -6.15912], [106.83751, -6.15967]]]}}, {"type": "Feature", "properties": {"domain_id": "317402", "name": "SETIABUDI"}, "geometry": {"type": "Polygon", "coordinates": [[[106.83518, -6.22598], [106.8368, -6.23014], [106.83637, -6.23603], [106.83511, -6.23817], [106.83466, -6.2409], [106.8325, -6.24009], [106.82187, -6.23306], [106.81239, -6.21942], [106.81972, -6.213], [106.82182, -6.20863], [106.82275, -6.20267], [106.83732, -6.20539], [106.84613, -6.20859], [106.84793, -6.2085], [106.84384, -6.21571], [106.84612, -6.22093], [106.84531, -6.22146], [106.83857, -6.22151], [106.83858, -6.22223], [106.83779, -6.22266], [106.83878, -6.2252], [106.83518, -6.22598]]]}}, {"type": "Feature", "properties": {"domain_id": "317407", "name": "KEBAYORAN BARU"}, "geometry": {"type": "Polygon", "coordinates": [[[106.80895, -6.25685], [106.8095, -6.25883], [106.81063, -6.25926], [106.81045, -6.26014], [106.81153, -6.26086], [106.81203, -6.26231], [106.81146, -6.26273], [106.8117, -6.26348], [106.81332, -6.26583], [106.81294, -6.26704], [106.81004, -6.26656], [106.81002, -6.26597], [106.80026, -6.26674], [106.80014, -6.26583], [106.79738, -6.26571], [106.79719, -6.2639], [106.79448, -6.2636], [106.79423, -6.26431], [106.78527, -6.26299], [106.78506, -6.25736], [106.7863, -6.25679], [106.78583, -6.25528], [106.78621, -6.25401], [106.78785, -6.25337], [106.78864, -6.25196], [106.78838, -6.24985], [106.78919, -6.24734], [106.78866, -6.24726], [106.78766, -6.24423], [106.78479, -6.24283], [106.78412, -6.24164], [106.78542, -6.23869], [106.78491, -6.23717], [106.78745, -6.23413], [106.78983, -6.23334], [106.79196, -6.23069], [106.79365, -6.23081], [106.79473, -6.23002], [106.79556, -6.23044], [106.79586, -6.22926], [106.79853, -6.2288], [106.79947, -6.22922], [106.8124, -6.21942], [106.81709, -6.22633], [106.81656, -6.22805], [106.8173, -6.22989], [106.81674, -6.23198], [106.81747, -6.23214], [106.81786, -6.23535], [106.81857, -6.23594], [106.81796, -6.23852], [106.81577, -6.24167], [106.81555, -6.24325], [106.81475, -6.24299], [106.81383, -6.24553], [106.80949, -6.24915], [106.81038, -6.25038], [106.80857, -6.25313], [106.80832, -6.25575], [106.80895, -6.25685]]]}}, {"type": "Feature", "properties": {"domain_id": "317502", "name": "PULOGADUNG"}, "geometry": {"type": "Polygon", "coordinates": [[[106.88785, -6.21401], [106.87422, -6.21491], [106.8733, -6.20139], [106.87532, -6.19106], [106.87612, -6.17585], [106.8789, -6.16642], [106.88135, -6.16726], [106.89117, -6.17324], [106.89638, -6.178], [106.90158, -6.17863], [106.91033, -6.1823], [106.90583, -6.18661], [106.90647, -6.18929], [106.90468, -6.2018], [106.90234, -6.20701], [106.90081, -6.2133], [106.89185, -6.21314], [106.88785, -6.21401]]]}}, {"type": "Feature", "properties": {"domain_id": "317107", "name": "TANAH ABANG"}, "geometry": {"type": "Polygon", "coordinates": [[[106.8122, -6.21957], [106.79947, -6.22922], [106.79853, -6.2288], [106.79586, -6.22926], [106.79691, -6.21872], [106.79534, -6.21354], [106.79583, -6.2125], [106.79344, -6.21171], [106.79365, -6.21082], [106.79188, -6.20871], [106.79244, -6.20779], [106.79613, -6.20754], [106.79773, -6.20317], [106.80007, -6.20042], [106.80277, -6.19904], [106.8043, -6.19737], [106.80682, -6.18903], [106.81065, -6.18893], [106.81036, -6.1852], [106.81387, -6.18217], [106.81583, -6.18155], [106.82187, -6.18333], [106.82226, -6.18393], [106.82246, -6.18885], [106.82127, -6.19111], [106.82065, -6.19478], [106.82312, -6.1978], [106.82313, -6.20075], [106.82197, -6.2081], [106.81999, -6.21255], [106.81835, -6.21466], [106.8122, -6.21957]]]}}, {"type": "Feature", "properties": {"domain_id": "317503", "name": "JATINEGARA"}, "geometry": {"type": "Polygon", "coordinates": [[[106.8868, -6.21416], [106.89119, -6.21319], [106.89579, -6.2132], [106.8962, -6.21622], [106.8951, -6.21822], [106.89598, -6.21884], [106.89599, -6.22063], [106.89375, -6.22258], [106.89284, -6.22644], [106.89149, -6.22724], [106.89168, -6.22846], [106.88999, -6.22985], [106.89005, -6.23117], [106.89145, -6.23242], [106.89204, -6.23579], [106.89295, -6.23537], [106.89216, -6.23952], [106.87796, -6.24003], [106.87723, -6.243], [106.87527, -6.24641], [106.86528, -6.24339], [106.86254, -6.24311], [106.86308, -6.23881], [106.86398, -6.23715], [106.86536, -6.23693], [106.86613, -6.23885], [106.86687, -6.23906], [106.86654, -6.23707], [106.86527, -6.23509], [106.8664, -6.23429], [106.86527, -6.23243], [106.86329, -6.231], [106.8649, -6.22866], [106.86478, -6.22683], [106.86354, -6.22478], [106.86529, -6.22441], [106.8655, -6.22364], [106.86298, -6.21979], [106.86175, -6.21984], [106.86132, -6.22185], [106.8601, -6.22129], [106.86358, -6.21635], [106.86024, -6.2173], [106.85863, -6.2163], [106.85733, -6.21762], [106.85632, -6.21621], [106.85741, -6.21391], [106.85826, -6.21363], [106.85813, -6.21313], [106.86267, -6.21152], [106.86757, -6.21497], [106.8868, -6.21416]]]}}, {"type": "Feature", "properties": {"domain_id": "317501", "name": "MATRAMAN"}, "geometry": {"type": "Polygon", "coordinates": [[[106.87402, -6.20988], [106.87422, -6.21491], [106.86757, -6.21497], [106.86305, -6.21157], [106.85813, -6.21313], [106.85696, -6.21185], [106.85463, -6.21124], [106.8491, -6.20756], [106.85013, -6.20557], [106.85369, -6.20659], [106.85506, -6.20586], [106.8558, -6.20427], [106.85532, -6.20256], [106.85272, -6.20188], [106.85151, -6.20245], [106.85107, -6.20162], [106.86062, -6.19464], [106.8649, -6.19265], [106.87276, -6.19199], [106.87513, -6.1923], [106.8733, -6.20139], [106.87402, -6.20988]]]}}, {"type": "Feature", "properties": {"domain_id": "317508", "name": "MAKASAR"}, "geometry": {"type": "Polygon", "coordinates": [[[106.8882, -6.29065], [106.89072, -6.29646], [106.89281, -6.29718], [106.8928, -6.29831], [106.89479, -6.29831], [106.89497, -6.299], [106.89214, -6.29897], [106.89258, -6.30255], [106.88335, -6.30212], [106.88236, -6.29809], [106.87308, -6.27492], [106.87262, -6.2703], [106.87324, -6.2596], [106.87239, -6.25453], [106.87796, -6.24003], [106.89288, -6.23958], [106.89897, -6.24391], [106.90637, -6.24661], [106.91363, -6.24835], [106.92104, -6.24785], [106.92109, -6.25048], [106.92052, -6.25041], [106.92049, -6.25122], [106.91782, -6.25178], [106.91761, -6.25231], [106.91858, -6.25258], [106.9187, -6.25381], [106.91827, -6.25487], [106.91713, -6.25484], [106.91696, -6.25628], [106.91476, -6.25693], [106.91476, -6.25621], [106.91304, -6.2561], [106.91198, -6.25509], [106.91009, -6.2554], [106.91041, -6.25804], [106.9054, -6.26021], [106.90435, -6.26205], [106.90556, -6.26333], [106.90505, -6.26338], [106.9053, -6.26453], [106.90477, -6.26466], [106.90457, -6.26622], [106.90563, -6.26883], [106.90424, -6.27034], [106.90553, -6.27033], [106.90569, -6.27131], [106.90703, -6.27225], [106.90835, -6.272], [106.90856, -6.27283], [106.90965, -6.27223], [106.91006, -6.2727], [106.90913, -6.27445], [106.9086, -6.27899], [106.90901, -6.28061], [106.90793, -6.28244], [106.90874, -6.28437], [106.90003, -6.28538], [106.89626, -6.28946], [106.8882, -6.29065]]]}}, {"type": "Feature", "properties": {"domain_id": "317405", "name": "KEBAYORAN LAMA"}, "geometry": {"type": "Polygon", "coordinates": [[[106.78523, -6.26159], [106.78536, -6.26538], [106.78647, -6.26607], [106.7874, -6.26791], [106.78972, -6.26919], [106.7907, -6.26878], [106.79152, -6.27315], [106.78962, -6.27611], [106.79006, -6.28159], [106.78507, -6.28806], [106.7857, -6.2896], [106.78495, -6.29099], [106.78437, -6.29165], [106.78088, -6.29049], [106.77808, -6.28842], [106.77639, -6.28927], [106.76928, -6.28926], [106.76663, -6.29065], [106.76607, -6.28906], [106.76732, -6.28846], [106.7662, -6.28659], [106.76803, -6.2861], [106.76568, -6.28405], [106.76773, -6.28195], [106.76949, -6.2815], [106.76762, -6.27934], [106.76936, -6.27804], [106.77037, -6.27808], [106.76839, -6.27434], [106.7692, -6.27373], [106.77058, -6.2743], [106.77168, -6.2722], [106.77094, -6.27154], [106.77124, -6.27027], [106.76988, -6.26958], [106.76915, -6.26815], [106.76967, -6.26723], [106.76933, -6.26537], [106.77017, -6.26448], [106.77145, -6.26532], [106.7706, -6.26323], [106.77173, -6.26239], [106.7723, -6.26296], [106.7731, -6.26251], [106.77226, -6.25824], [106.77124, -6.25827], [106.77069, -6.25897], [106.76905, -6.25804], [106.77004, -6.25616], [106.77151, -6.25611], [106.77198, -6.25527], [106.77009, -6.25428], [106.76881, -6.25446], [106.76819, -6.25531], [106.76761, -6.25424], [106.76793, -6.2531], [106.76618, -6.25227], [106.76763, -6.25028], [106.76666, -6.24832], [106.76883, -6.24572], [106.76815, -6.24322], [106.76562, -6.24159], [106.76589, -6.23983], [106.76664, -6.23981], [106.76589, -6.2389], [106.76614, -6.23831], [106.76523, -6.23895], [106.76457, -6.2387], [106.76503, -6.23674], [106.76684, -6.23674], [106.76719, -6.23615], [106.76638, -6.2338], [106.76476, -6.235], [106.76416, -6.23337], [106.76585, -6.23023], [106.76516, -6.22948], [106.76355, -6.23052], [106.76309, -6.22995], [106.76476, -6.22912], [106.76477, -6.22709], [106.76751, -6.22748], [106.77843, -6.22691], [106.7785, -6.21791], [106.77708, -6.21656], [106.77767, -6.21377], [106.7833, -6.21279], [106.78338, -6.20668], [106.78727, -6.20699], [106.78907, -6.20847], [106.79052, -6.20748], [106.79244, -6.20779], [106.79188, -6.20884], [106.79365, -6.21082], [106.79344, -6.21171], [106.79582, -6.21245], [106.79534, -6.21354], [106.79691, -6.21872], [106.7956, -6.23041], [106.79473, -6.23002], [106.79365, -6.23081], [106.79196, -6.23069], [106.79023, -6.23301], [106.78745, -6.23413], [106.7849, -6.2372], [106.78542, -6.23869], [106.78425, -6.24208], [106.78677, -6.24352], [106.7869, -6.24427], [106.78766, -6.24423], [106.78866, -6.24726], [106.78919, -6.24734], [106.78838, -6.24985], [106.78864, -6.25196], [106.78785, -6.25337], [106.78621, -6.25401], [106.78583, -6.25528], [106.7863, -6.25679], [106.78506, -6.25736], [106.78523, -6.26159]]]}}, {"type": "Feature", "properties": {"domain_id": "317303", "name": "TAMAN SARI"}, "geometry": {"type": "Polygon", "coordinates": [[[106.8188, -6.15981], [106.81282, -6.16068], [106.81097, -6.15719], [106.81102, -6.15414], [106.81201, -6.15213], [106.81211, -6.14989], [106.81066, -6.14524], [106.81052, -6.14266], [106.8123, -6.14091], [106.81136, -6.13993], [106.81212, -6.13709], [106.81048, -6.13084], [106.81325, -6.13011], [106.81505, -6.13024], [106.81676, -6.13711], [106.82014, -6.13632], [106.82158, -6.13715], [106.82284, -6.14087], [106.82675, -6.14839], [106.8275, -6.15983], [106.82834, -6.16229], [106.82062, -6.15953], [106.8188, -6.15981]]]}}, {"type": "Feature", "properties": {"domain_id": "317509", "name": "CIRACAS"}, "geometry": {"type": "Polygon", "coordinates": [[[106.89156, -6.3514], [106.89565, -6.37143], [106.88909, -6.36793], [106.88742, -6.37261], [106.88468, -6.37251], [106.88479, -6.37201], [106.88311, -6.3716], [106.88365, -6.3704], [106.88266, -6.36991], [106.8831, -6.36833], [106.8839, -6.36779], [106.88322, -6.36585], [106.88368, -6.365], [106.88238, -6.36488], [106.8822, -6.36628], [106.88101, -6.36661], [106.88059, -6.36448], [106.87952, -6.3647], [106.87796, -6.36324], [106.87899, -6.3611], [106.87664, -6.36194], [106.87368, -6.36092], [106.87271, -6.36126], [106.87133, -6.36004], [106.8723, -6.35875], [106.87201, -6.35788], [106.87295, -6.3576], [106.87426, -6.35591], [106.87247, -6.3551], [106.87207, -6.35376], [106.87105, -6.35363], [106.87162, -6.35314], [106.87104, -6.3527], [106.87024, -6.35284], [106.86945, -6.35443], [106.86868, -6.35345], [106.86944, -6.35306], [106.86979, -6.35171], [106.86855, -6.35113], [106.86938, -6.34967], [106.86877, -6.34851], [106.86987, -6.34818], [106.86963, -6.34708], [106.87186, -6.34579], [106.87329, -6.34372], [106.87216, -6.3434], [106.87253, -6.34212], [106.87138, -6.34098], [106.87246, -6.34038], [106.8721, -6.33979], [106.87287, -6.33966], [106.87106, -6.33838], [106.86816, -6.33771], [106.86725, -6.33209], [106.86374, -6.32748], [106.86358, -6.32586], [106.86499, -6.32076], [106.86221, -6.31139], [106.86562, -6.30478], [106.87004, -6.2992], [106.8716, -6.29578], [106.87201, -6.29314], [106.87065, -6.287], [106.87211, -6.28743], [106.87215, -6.28908], [106.87409, -6.2915], [106.87313, -6.29269], [106.87373, -6.293], [106.87384, -6.29464], [106.87526, -6.29506], [106.87517, -6.29588], [106.87415, -6.29649], [106.87442, -6.29726], [106.87385, -6.29723], [106.8741, -6.29804], [106.87279, -6.29904], [106.87319, -6.30048], [106.87368, -6.30071], [106.87454, -6.29988], [106.87505, -6.30191], [106.8771, -6.30226], [106.87817, -6.30495], [106.87921, -6.30535], [106.87927, -6.30641], [106.88416, -6.30559], [106.8868, -6.31771], [106.88742, -6.33193], [106.89156, -6.3514]]]}}, {"type": "Feature", "properties": {"domain_id": "317507", "name": "DUREN SAWIT"}, "geometry": {"type": "Polygon", "coordinates": [[[106.9293, -6.25415], [106.92176, -6.2551], [106.92039, -6.25298], [106.92052, -6.25041], [106.92118, -6.25026], [106.92104, -6.24785], [106.91363, -6.24835], [106.90637, -6.24661], [106.89897, -6.24391], [106.89447, -6.24024], [106.89216, -6.23952], [106.89295, -6.23537], [106.89204, -6.23579], [106.89145, -6.23242], [106.89005, -6.23117], [106.88999, -6.22985], [106.89168, -6.22846], [106.89149, -6.22724], [106.89284, -6.22644], [106.89375, -6.22258], [106.89599, -6.22063], [106.89598, -6.21884], [106.8951, -6.21822], [106.8962, -6.21622], [106.89579, -6.2132], [106.90703, -6.21359], [106.95158, -6.21908], [106.94885, -6.22196], [106.9475, -6.22555], [106.94553, -6.23687], [106.94443, -6.2367], [106.94266, -6.23759], [106.9428, -6.23869], [106.94362, -6.23917], [106.94371, -6.24383], [106.94491, -6.2438], [106.94499, -6.2455], [106.94401, -6.24531], [106.94443, -6.24667], [106.94373, -6.24936], [106.944, -6.2524], [106.94177, -6.25267], [106.94083, -6.25359], [106.93586, -6.25313], [106.9293, -6.25415]]]}}, {"type": "Feature", "properties": {"domain_id": "317305", "name": "KEBON JERUK"}, "geometry": {"type": "Polygon", "coordinates": [[[106.7771, -6.21626], [106.7785, -6.21791], [106.77843, -6.22691], [106.76751, -6.22748], [106.76479, -6.22709], [106.76594, -6.2269], [106.76689, -6.22524], [106.76556, -6.22318], [106.76592, -6.22244], [106.76521, -6.22124], [106.76504, -6.21855], [106.76308, -6.21559], [106.76615, -6.21158], [106.76552, -6.20922], [106.76464, -6.20904], [106.76511, -6.20731], [106.76359, -6.205], [106.76431, -6.2042], [106.76439, -6.20273], [106.76385, -6.20245], [106.76192, -6.19632], [106.76065, -6.1969], [106.7597, -6.19527], [106.75695, -6.19296], [106.75711, -6.19025], [106.75869, -6.18957], [106.75791, -6.18863], [106.75826, -6.18692], [106.75716, -6.1875], [106.75653, -6.18449], [106.75502, -6.18412], [106.75403, -6.18466], [106.74994, -6.18047], [106.75131, -6.17751], [106.74984, -6.17706], [106.74925, -6.17231], [106.75187, -6.17013], [106.7518, -6.16857], [106.75667, -6.16479], [106.75792, -6.1607], [106.76108, -6.1582], [106.76666, -6.15994], [106.76766, -6.1579], [106.76872, -6.15872], [106.76985, -6.16121], [106.78023, -6.16514], [106.78031, -6.16603], [106.77951, -6.16655], [106.77982, -6.18011], [106.7835, -6.18657], [106.78208, -6.19464], [106.7836, -6.21198], [106.78259, -6.21328], [106.77778, -6.21359], [106.7771, -6.21626]]]}}, {"type": "Feature", "properties": {"domain_id": "317101", "name": "GAMBIR"}, "geometry": {"type": "Polygon", "coordinates": [[[106.81424, -6.18194], [106.81036, -6.18521], [106.80984, -6.17965], [106.80037, -6.166], [106.79818, -6.1614], [106.80042, -6.16037], [106.80128, -6.15903], [106.80164, -6.16014], [106.80413, -6.16178], [106.82062, -6.15953], [106.82838, -6.1623], [106.83039, -6.16602], [106.82987, -6.17108], [106.83313, -6.17247], [106.83228, -6.17563], [106.83321, -6.17571], [106.83422, -6.17466], [106.83507, -6.17654], [106.8347, -6.17813], [106.83694, -6.17795], [106.83507, -6.18062], [106.83657, -6.18165], [106.83413, -6.18259], [106.82187, -6.18333], [106.81602, -6.18158], [106.81424, -6.18194]]]}}, {"type": "Feature", "properties": {"domain_id": "317304", "name": "TAMBORA"}, "geometry": {"type": "Polygon", "coordinates": [[[106.80131, -6.15903], [106.80042, -6.16037], [106.79818, -6.1614], [106.79449, -6.15239], [106.78924, -6.14248], [106.79224, -6.14278], [106.80056, -6.14186], [106.80022, -6.13583], [106.80117, -6.13366], [106.81048, -6.13084], [106.81212, -6.13709], [106.81136, -6.13993], [106.8123, -6.14091], [106.81052, -6.14266], [106.81066, -6.14524], [106.81211, -6.14989], [106.81095, -6.15707], [106.81282, -6.16068], [106.80413, -6.16178], [106.80164, -6.16014], [106.80131, -6.15903]]]}}, {"type": "Feature", "properties": {"domain_id": "317505", "name": "PASAR REBO"}, "geometry": {"type": "Polygon", "coordinates": [[[106.8673, -6.33277], [106.86816, -6.33771], [106.87106, -6.33838], [106.87287, -6.33966], [106.8721, -6.33979], [106.87246, -6.34038], [106.87138, -6.34098], [106.87253, -6.34212], [106.87216, -6.3434], [106.87329, -6.34372], [106.87186, -6.34579], [106.86963, -6.34708], [106.86987, -6.34818], [106.86877, -6.34851], [106.86938, -6.34967], [106.86855, -6.35113], [106.86979, -6.35171], [106.86903, -6.35364], [106.86837, -6.35301], [106.8677, -6.35466], [106.86608, -6.35604], [106.86276, -6.35627], [106.86226, -6.35721], [106.86056, -6.35541], [106.86213, -6.35408], [106.86113, -6.35257], [106.86062, -6.35278], [106.85928, -6.3514], [106.85913, -6.3503], [106.85716, -6.35058], [106.85781, -6.34808], [106.85674, -6.34708], [106.8559, -6.34751], [106.85415, -6.34651], [106.85396, -6.34532], [106.85479, -6.34459], [106.85468, -6.34389], [106.85398, -6.34291], [106.85207, -6.34285], [106.85166, -6.34142], [106.84933, -6.33935], [106.84944, -6.33852], [106.84798, -6.33802], [106.84898, -6.3377], [106.84901, -6.33694], [106.84179, -6.33683], [106.84162, -6.33605], [106.84004, -6.33589], [106.8397, -6.33527], [106.84011, -6.33225], [106.84244, -6.33222], [106.84347, -6.33159], [106.84023, -6.32944], [106.8413, -6.32679], [106.84222, -6.32769], [106.84316, -6.32618], [106.84144, -6.32355], [106.84005, -6.32276], [106.84086, -6.32137], [106.83918, -6.32167], [106.83836, -6.32111], [106.8394, -6.31916], [106.84232, -6.31799], [106.84366, -6.31849], [106.84428, -6.31665], [106.84617, -6.31702], [106.84808, -6.31515], [106.8489, -6.31566], [106.84853, -6.31709], [106.84684, -6.31809], [106.84926, -6.31885], [106.84951, -6.31751], [106.85179, -6.31598], [106.85121, -6.31482], [106.85244, -6.31105], [106.85464, -6.31238], [106.855, -6.31387], [106.85833, -6.31121], [106.85683, -6.31002], [106.85771, -6.30786], [106.8574, -6.3064], [106.85852, -6.30544], [106.85466, -6.30313], [106.85485, -6.29962], [106.8525, -6.29992], [106.85159, -6.30111], [106.8496, -6.29897], [106.85215, -6.29897], [106.8521, -6.2979], [106.85072, -6.29701], [106.85049, -6.296], [106.85417, -6.29614], [106.85453, -6.29352], [106.8552, -6.29345], [106.85586, -6.29449], [106.85573, -6.29283], [106.85784, -6.29221], [106.8595, -6.29224], [106.86038, -6.29398], [106.86484, -6.29393], [106.86553, -6.29794], [106.86696, -6.29833], [106.86672, -6.29918], [106.86915, -6.30005], [106.86562, -6.30478], [106.86221, -6.31139], [106.86499, -6.32076], [106.86353, -6.32679], [106.86656, -6.33054], [106.8673, -6.33277]]]}}, {"type": "Feature", "properties": {"domain_id": "317205", "name": "PADEMANGAN"}, "geometry": {"type": "Polygon", "coordinates": [[[106.84767, -6.12717], [106.84792, -6.129], [106.84949, -6.13131], [106.84988, -6.13392], [106.85226, -6.13652], [106.85248, -6.13941], [106.85598, -6.15059], [106.86013, -6.14984], [106.86084, -6.15025], [106.86117, -6.15164], [106.86036, -6.15378], [106.85658, -6.15181], [106.84518, -6.15344], [106.84127, -6.15074], [106.84347, -6.14725], [106.84312, -6.14657], [106.84408, -6.14496], [106.83842, -6.14176], [106.83715, -6.14605], [106.83544, -6.14283], [106.831, -6.14007], [106.8307, -6.13514], [106.81676, -6.13711], [106.81505, -6.13024], [106.81048, -6.13084], [106.80949, -6.1279], [106.80787, -6.11609], [106.80904, -6.11694], [106.8096, -6.12023], [106.8114, -6.12049], [106.81183, -6.12267], [106.81253, -6.12255], [106.81203, -6.11928], [106.81311, -6.12066], [106.81383, -6.12075], [106.81456, -6.11945], [106.81648, -6.11989], [106.81721, -6.11487], [106.82327, -6.11576], [106.82349, -6.11644], [106.82362, -6.1158], [106.82567, -6.11603], [106.82565, -6.11735], [106.8282, -6.11745], [106.82898, -6.12138], [106.82945, -6.12135], [106.82907, -6.11848], [106.82936, -6.12014], [106.8306, -6.12107], [106.83408, -6.12079], [106.83498, -6.12173], [106.83873, -6.12144], [106.83866, -6.1209], [106.84265, -6.12105], [106.84308, -6.12181], [106.84254, -6.12253], [106.83928, -6.12243], [106.84014, -6.12375], [106.84265, -6.1237], [106.84322, -6.12358], [106.84385, -6.12108], [106.8465, -6.12014], [106.84632, -6.11933], [106.84733, -6.12051], [106.84875, -6.12013], [106.84873, -6.11925], [106.84945, -6.11962], [106.85387, -6.1184], [106.85825, -6.11549], [106.85859, -6.11422], [106.85728, -6.11374], [106.85318, -6.11665], [106.84954, -6.11745], [106.84883, -6.11709], [106.85257, -6.11631], [106.85524, -6.11481], [106.85415, -6.11252], [106.85584, -6.11046], [106.85741, -6.11012], [106.8586, -6.11084], [106.86084, -6.11016], [106.86137, -6.11464], [106.86315, -6.11409], [106.86353, -6.1153], [106.86392, -6.11157], [106.87293, -6.10435], [106.87205, -6.1085], [106.86492, -6.11233], [106.86462, -6.11355], [106.86518, -6.11368], [106.86566, -6.11963], [106.86508, -6.12022], [106.85326, -6.12571], [106.84767, -6.12717]]]}}, {"type": "Feature", "properties": {"domain_id": "317106", "name": "MENTENG"}, "geometry": {"type": "Polygon", "coordinates": [[[106.84375, -6.19535], [106.84587, -6.19599], [106.84497, -6.19829], [106.84573, -6.19936], [106.84877, -6.19841], [106.85151, -6.20245], [106.85272, -6.20188], [106.85532, -6.20256], [106.8558, -6.20427], [106.85506, -6.20586], [106.85369, -6.20659], [106.85013, -6.20557], [106.8491, -6.20758], [106.84633, -6.20864], [106.83732, -6.20539], [106.82275, -6.20267], [106.82312, -6.1978], [106.82065, -6.19478], [106.82127, -6.19111], [106.82246, -6.18885], [106.82255, -6.18508], [106.82174, -6.18349], [106.83413, -6.18259], [106.83657, -6.18165], [106.83633, -6.18481], [106.83783, -6.18606], [106.84072, -6.18557], [106.84049, -6.18707], [106.84185, -6.18795], [106.84111, -6.18933], [106.84529, -6.19216], [106.84368, -6.19373], [106.84375, -6.19535]]]}}, {"type": "Feature", "properties": {"domain_id": "317302", "name": "GROGOL PETAMBURAN"}, "geometry": {"type": "Polygon", "coordinates": [[[106.79572, -6.17962], [106.79204, -6.18373], [106.78932, -6.18484], [106.78266, -6.1854], [106.78208, -6.18448], [106.7798, -6.17994], [106.77951, -6.16655], [106.78031, -6.16603], [106.78015, -6.1649], [106.76985, -6.16121], [106.76872, -6.15872], [106.76766, -6.1579], [106.77503, -6.14523], [106.77753, -6.14401], [106.78806, -6.14311], [106.78924, -6.14248], [106.79449, -6.15239], [106.79975, -6.16496], [106.80552, -6.17346], [106.79572, -6.17962]]]}}, {"type": "Feature", "properties": {"domain_id": "317403", "name": "MAMPANG PRAPATAN"}, "geometry": {"type": "Polygon", "coordinates": [[[106.82341, -6.25394], [106.82529, -6.25476], [106.8248, -6.25808], [106.82628, -6.25872], [106.82635, -6.25933], [106.82457, -6.2604], [106.82585, -6.26125], [106.8266, -6.26554], [106.82763, -6.26563], [106.82735, -6.26646], [106.82653, -6.26618], [106.82537, -6.26765], [106.82565, -6.26866], [106.82458, -6.27018], [106.8252, -6.27135], [106.82374, -6.27076], [106.82175, -6.27166], [106.82105, -6.27428], [106.81391, -6.27306], [106.81388, -6.27219], [106.81145, -6.27046], [106.81332, -6.26583], [106.8117, -6.26348], [106.81146, -6.26273], [106.81203, -6.26231], [106.81153, -6.26086], [106.81045, -6.26014], [106.81063, -6.25926], [106.8095, -6.25883], [106.80914, -6.25645], [106.80833, -6.25543], [106.80857, -6.25313], [106.81035, -6.2507], [106.80949, -6.24915], [106.81383, -6.24553], [106.81475, -6.24299], [106.81555, -6.24325], [106.81577, -6.24167], [106.81796, -6.23852], [106.81857, -6.23594], [106.81786, -6.23535], [106.81747, -6.23214], [106.81674, -6.23198], [106.8173, -6.22989], [106.81656, -6.22805], [106.81709, -6.22633], [106.82221, -6.23337], [106.83518, -6.24139], [106.83573, -6.2518], [106.82319, -6.253], [106.82341, -6.25394]]]}}, {"type": "Feature", "properties": {"domain_id": "317103", "name": "KEMAYORAN"}, "geometry": {"type": "Polygon", "coordinates": [[[106.84857, -6.16814], [106.84271, -6.1686], [106.84295, -6.1716], [106.84058, -6.17184], [106.83736, -6.15912], [106.84041, -6.15817], [106.83952, -6.15448], [106.84111, -6.15292], [106.84127, -6.15074], [106.84552, -6.1535], [106.85668, -6.15183], [106.87693, -6.16349], [106.8814, -6.16252], [106.8789, -6.16642], [106.87653, -6.1664], [106.87258, -6.16761], [106.85807, -6.17393], [106.85204, -6.17463], [106.8523, -6.16907], [106.84857, -6.16814]]]}}, {"type": "Feature", "properties": {"domain_id": "317410", "name": "PESANGGRAHAN"}, "geometry": {"type": "Polygon", "coordinates": [[[106.76928, -6.25446], [106.77157, -6.25484], [106.77205, -6.25557], [106.77125, -6.25621], [106.77014, -6.25607], [106.76911, -6.25813], [106.77069, -6.25897], [106.7721, -6.25811], [106.77276, -6.25908], [106.77309, -6.26253], [106.7723, -6.26296], [106.77173, -6.26239], [106.77083, -6.263], [106.77145, -6.26532], [106.77, -6.2645], [106.7692, -6.26596], [106.76967, -6.26723], [106.76915, -6.26815], [106.76988, -6.26958], [106.77124, -6.27027], [106.77094, -6.27154], [106.77166, -6.27232], [106.7705, -6.27435], [106.7692, -6.27373], [106.76839, -6.27434], [106.77037, -6.27808], [106.76936, -6.27804], [106.76762, -6.27934], [106.76949, -6.2815], [106.76773, -6.28195], [106.76568, -6.28405], [106.76802, -6.28604], [106.7662, -6.28659], [106.76729, -6.28855], [106.7631, -6.2888], [106.76297, -6.28688], [106.76011, -6.28644], [106.7622, -6.27784], [106.75947, -6.27815], [106.75717, -6.27763], [106.75691, -6.27429], [106.75153, -6.27454], [106.75153, -6.27242], [106.75062, -6.27151], [106.75318, -6.26886], [106.75231, -6.26802], [106.75245, -6.26473], [106.75652, -6.26245], [106.75632, -6.26161], [106.75351, -6.26228], [106.75148, -6.26177], [106.75157, -6.26058], [106.7525, -6.25974], [106.75438, -6.25954], [106.75483, -6.25583], [106.75416, -6.25535], [106.75357, -6.25164], [106.75256, -6.25167], [106.75184, -6.25004], [106.7482, -6.25008], [106.74666, -6.24731], [106.74726, -6.24268], [106.74864, -6.24084], [106.74683, -6.23639], [106.744, -6.23649], [106.74479, -6.23383], [106.74448, -6.23229], [106.7454, -6.2318], [106.74545, -6.23083], [106.7439, -6.2305], [106.74442, -6.22903], [106.74326, -6.22877], [106.74331, -6.22756], [106.74033, -6.22766], [106.7404, -6.22623], [106.73978, -6.2262], [106.73956, -6.22537], [106.73774, -6.22537], [106.73743, -6.22388], [106.74438, -6.22292], [106.76592, -6.22247], [106.76556, -6.22318], [106.76687, -6.2254], [106.76594, -6.2269], [106.76461, -6.22725], [106.76476, -6.22912], [106.76309, -6.23003], [106.76355, -6.23052], [106.76479, -6.22952], [106.76565, -6.22984], [106.7659, -6.2309], [106.76416, -6.23337], [106.76472, -6.23499], [106.7662, -6.23372], [106.76722, -6.2352], [106.76691, -6.2367], [106.76503, -6.23674], [106.76445, -6.23769], [106.76471, -6.23892], [106.76614, -6.23831], [106.76589, -6.2389], [106.76664, -6.23981], [106.76589, -6.23983], [106.76562, -6.24159], [106.76815, -6.24322], [106.76883, -6.24572], [106.76666, -6.24832], [106.76763, -6.25028], [106.76618, -6.25227], [106.76793, -6.2531], [106.76761, -6.25424], [106.76819, -6.25531], [106.76928, -6.25446]]]}}, {"type": "Feature", "properties": {"domain_id": "317401", "name": "TEBET"}, "geometry": {"type": "Polygon", "coordinates": [[[106.86362, -6.22512], [106.86478, -6.22683], [106.86489, -6.22885], [106.86329, -6.231], [106.86527, -6.23243], [106.8664, -6.23429], [106.86527, -6.23509], [106.86692, -6.23871], [106.86678, -6.23918], [106.86613, -6.23885], [106.86536, -6.23693], [106.86398, -6.23715], [106.86308, -6.23881], [106.86254, -6.24311], [106.84348, -6.24331], [106.83466, -6.2409], [106.83511, -6.23817], [106.83637, -6.23603], [106.8368, -6.23014], [106.8351, -6.22562], [106.83878, -6.2252], [106.83779, -6.22266], [106.83858, -6.22223], [106.83857, -6.22151], [106.84531, -6.22146], [106.84612, -6.22093], [106.84384, -6.21571], [106.84781, -6.20829], [106.84872, -6.20764], [106.85302, -6.20976], [106.85463, -6.21124], [106.85751, -6.2123], [106.85831, -6.21355], [106.85703, -6.2144], [106.85632, -6.21621], [106.85717, -6.21753], [106.85789, -6.21754], [106.85863, -6.2163], [106.86024, -6.2173], [106.86353, -6.21629], [106.8601, -6.22129], [106.86132, -6.22185], [106.86175, -6.21984], [106.86298, -6.21979], [106.8655, -6.22364], [106.86529, -6.22441], [106.86384, -6.22448], [106.86362, -6.22512]]]}}, {"type": "Feature", "properties": {"domain_id": "317104", "name": "SENEN"}, "geometry": {"type": "Polygon", "coordinates": [[[106.85174, -6.18729], [106.85838, -6.19617], [106.85107, -6.20162], [106.84877, -6.19841], [106.84744, -6.19844], [106.84604, -6.19942], [106.84512, -6.19888], [106.84587, -6.19599], [106.84397, -6.1956], [106.8436, -6.19454], [106.84378, -6.19356], [106.84529, -6.19216], [106.84111, -6.18933], [106.84185, -6.18795], [106.84049, -6.18707], [106.84072, -6.18557], [106.83783, -6.18606], [106.83633, -6.18481], [106.83687, -6.18189], [106.83507, -6.18062], [106.83694, -6.17795], [106.83491, -6.17835], [106.83507, -6.17654], [106.83442, -6.17481], [106.83265, -6.17578], [106.83297, -6.17431], [106.83432, -6.17276], [106.83633, -6.17573], [106.84058, -6.17184], [106.84295, -6.1716], [106.84271, -6.1686], [106.84861, -6.16814], [106.84922, -6.16871], [106.8523, -6.16907], [106.85204, -6.17463], [106.845, -6.17552], [106.84669, -6.18054], [106.85174, -6.18729]]]}}, {"type": "Feature", "properties": {"domain_id": "317506", "name": "CAKUNG"}, "geometry": {"type": "Polygon", "coordinates": [[[106.96745, -6.19886], [106.96606, -6.20112], [106.96653, -6.20303], [106.96569, -6.20487], [106.96631, -6.20527], [106.96585, -6.20579], [106.96624, -6.20693], [106.96477, -6.20837], [106.96282, -6.21217], [106.96134, -6.21169], [106.95902, -6.21234], [106.95771, -6.21767], [106.95704, -6.21815], [106.95406, -6.21748], [106.95379, -6.21921], [106.90712, -6.2136], [106.90081, -6.2133], [106.90234, -6.20701], [106.90468, -6.2018], [106.90647, -6.18929], [106.90601, -6.18629], [106.91047, -6.18227], [106.9225, -6.18312], [106.92164, -6.1805], [106.92192, -6.17803], [106.92039, -6.17014], [106.92216, -6.16123], [106.92861, -6.16039], [106.92971, -6.15963], [106.93313, -6.1591], [106.93353, -6.158], [106.93577, -6.15853], [106.93871, -6.15285], [106.94016, -6.15135], [106.94038, -6.15523], [106.94433, -6.15502], [106.94438, -6.16294], [106.94867, -6.16314], [106.94879, -6.1623], [106.95089, -6.16219], [106.9522, -6.15989], [106.95269, -6.16006], [106.95322, -6.15834], [106.95427, -6.15766], [106.95716, -6.15845], [106.9586, -6.15952], [106.95863, -6.15888], [106.961, -6.15833], [106.96098, -6.15573], [106.96373, -6.15626], [106.96855, -6.15452], [106.97151, -6.15433], [106.97214, -6.1654], [106.97158, -6.16894], [106.97262, -6.16939], [106.97202, -6.17074], [106.97238, -6.17288], [106.97303, -6.17322], [106.97257, -6.17368], [106.97291, -6.17904], [106.97339, -6.17923], [106.97247, -6.18536], [106.97321, -6.18558], [106.973, -6.18944], [106.97195, -6.18956], [106.97214, -6.19097], [106.97141, -6.19246], [106.97064, -6.19212], [106.97059, -6.19521], [106.97002, -6.19534], [106.97052, -6.1979], [106.96745, -6.19886]]]}}, {"type": "Feature", "properties": {"domain_id": "317105", "name": "CEMPAKA PUTIH"}, "geometry": {"type": "Polygon", "coordinates": [[[106.87548, -6.18825], [106.87513, -6.1923], [106.87242, -6.19196], [106.8649, -6.19265], [106.86252, -6.19348], [106.85838, -6.19617], [106.8554, -6.19211], [106.8601, -6.18914], [106.86375, -6.18805], [106.86243, -6.18551], [106.86169, -6.18145], [106.85993, -6.18123], [106.85768, -6.17399], [106.86053, -6.17322], [106.87258, -6.16761], [106.87653, -6.1664], [106.8789, -6.16642], [106.87612, -6.17585], [106.87548, -6.18825]]]}}, {"type": "Feature", "properties": {"domain_id": "317307", "name": "PAL MERAH"}, "geometry": {"type": "Polygon", "coordinates": [[[106.79944, -6.20149], [106.79722, -6.20396], [106.79608, -6.20758], [106.79058, -6.20747], [106.78907, -6.20847], [106.78727, -6.20699], [106.7832, -6.20673], [106.78208, -6.19454], [106.78344, -6.18759], [106.78323, -6.1853], [106.78839, -6.18505], [106.79159, -6.18401], [106.79511, -6.18001], [106.80552, -6.17346], [106.80984, -6.17965], [106.81065, -6.18893], [106.80682, -6.18903], [106.8043, -6.19737], [106.80277, -6.19904], [106.80023, -6.20028], [106.79944, -6.20149]]]}}, {"type": "Feature", "properties": {"domain_id": "317308", "name": "KEMBANGAN"}, "geometry": {"type": "Polygon", "coordinates": [[[106.7584, -6.22256], [106.74438, -6.22292], [106.72711, -6.22434], [106.72017, -6.22423], [106.71987, -6.22309], [106.71809, -6.22304], [106.71783, -6.22019], [106.7183, -6.2186], [106.71884, -6.21857], [106.71982, -6.21237], [106.72309, -6.21231], [106.72357, -6.20853], [106.72438, -6.20786], [106.72453, -6.20227], [106.72339, -6.19907], [106.72447, -6.19662], [106.72387, -6.19619], [106.72471, -6.19395], [106.72413, -6.19179], [106.72198, -6.19145], [106.72023, -6.19246], [106.71963, -6.1919], [106.71803, -6.19276], [106.71344, -6.19177], [106.71384, -6.19109], [106.71483, -6.19162], [106.7149, -6.18993], [106.71677, -6.18975], [106.71795, -6.18776], [106.72137, -6.18706], [106.7227, -6.18559], [106.72418, -6.18585], [106.72437, -6.18496], [106.72299, -6.1843], [106.72333, -6.18361], [106.72434, -6.18365], [106.72408, -6.18259], [106.72493, -6.18208], [106.72445, -6.18108], [106.72573, -6.18035], [106.72526, -6.17983], [106.72577, -6.17864], [106.727, -6.17877], [106.72668, -6.17749], [106.72751, -6.17765], [106.72784, -6.17655], [106.72959, -6.17582], [106.72922, -6.17509], [106.731, -6.17598], [106.73076, -6.17503], [106.73191, -6.17438], [106.73146, -6.17387], [106.73191, -6.17291], [106.73343, -6.17153], [106.73559, -6.17104], [106.73568, -6.16991], [106.73631, -6.17034], [106.73764, -6.16991], [106.73823, -6.17061], [106.73799, -6.16867], [106.73878, -6.16978], [106.7394, -6.16792], [106.74027, -6.16861], [106.74056, -6.16749], [106.74168, -6.16803], [106.7421, -6.1669], [106.74379, -6.16647], [106.74396, -6.16592], [106.74453, -6.1667], [106.74554, -6.16641], [106.74576, -6.16566], [106.74665, -6.16595], [106.74667, -6.16501], [106.74877, -6.16566], [106.7476, -6.16046], [106.74771, -6.15828], [106.75319, -6.15791], [106.75942, -6.15919], [106.75792, -6.1607], [106.7579, -6.16191], [106.7571, -6.16208], [106.75667, -6.16479], [106.7518, -6.16857], [106.75187, -6.17013], [106.74925, -6.17231], [106.74984, -6.17706], [106.75131, -6.17751], [106.74994, -6.18047], [106.75403, -6.18466], [106.75502, -6.18412], [106.75653, -6.18449], [106.75716, -6.1875], [106.7583, -6.18699], [106.75791, -6.18863], [106.75869, -6.18957], [106.75711, -6.19025], [106.75695, -6.19296], [106.7597, -6.19527], [106.76065, -6.1969], [106.76149, -6.19611], [106.76254, -6.19714], [106.76323, -6.20081], [106.76439, -6.20273], [106.76431, -6.2042], [106.76359, -6.205], [106.76511, -6.20731], [106.76464, -6.20904], [106.76549, -6.20918], [106.76604, -6.21061], [106.76576, -6.21248], [106.76306, -6.21528], [106.76504, -6.21855], [106.76521, -6.22124], [106.76592, -6.22247], [106.7584, -6.22256]]]}}, {"type": "Feature", "properties": {"domain_id": "317306", "name": "KALIDERES"}, "geometry": {"type": "Polygon", "coordinates": [[[106.68595, -6.1279], [106.68663, -6.12482], [106.68794, -6.12461], [106.68998, -6.12109], [106.69025, -6.11695], [106.69125, -6.11372], [106.69399, -6.11342], [106.69563, -6.11389], [106.69586, -6.112], [106.69689, -6.1106], [106.69641, -6.11083], [106.69528, -6.10958], [106.69475, -6.10721], [106.69301, -6.10627], [106.69143, -6.10715], [106.69125, -6.10888], [106.68928, -6.10874], [106.68874, -6.10809], [106.68878, -6.10439], [106.68818, -6.10326], [106.68945, -6.10182], [106.68915, -6.10025], [106.68852, -6.10017], [106.68799, -6.09707], [106.69229, -6.09568], [106.69755, -6.09644], [106.7025, -6.09607], [106.70313, -6.09685], [106.70688, -6.09592], [106.71079, -6.09685], [106.71147, -6.09647], [106.71291, -6.09732], [106.71444, -6.09898], [106.71764, -6.10512], [106.72722, -6.11729], [106.73161, -6.12143], [106.73059, -6.12334], [106.72984, -6.12271], [106.7286, -6.12326], [106.72443, -6.12635], [106.72328, -6.12595], [106.72125, -6.12697], [106.72058, -6.12667], [106.71926, -6.12825], [106.71968, -6.12882], [106.71675, -6.13117], [106.71786, -6.13242], [106.71663, -6.13359], [106.71669, -6.13847], [106.71746, -6.14338], [106.71832, -6.14356], [106.7179, -6.14543], [106.71901, -6.15343], [106.71575, -6.15517], [106.7161, -6.15808], [106.71548, -6.15809], [106.71538, -6.16064], [106.71645, -6.16073], [106.7166, -6.16574], [106.71367, -6.16797], [106.71262, -6.17127], [106.71164, -6.17187], [106.71054, -6.17416], [106.70865, -6.17464], [106.70649, -6.17393], [106.70513, -6.17483], [106.70327, -6.17476], [106.70059, -6.17684], [106.6956, -6.17514], [106.69452, -6.17575], [106.69118, -6.17491], [106.69123, -6.17351], [106.68681, -6.17237], [106.68701, -6.16862], [106.68811, -6.16843], [106.68866, -6.16697], [106.6893, -6.16698], [106.68931, -6.16396], [106.69099, -6.16063], [106.69093, -6.15994], [106.68804, -6.15993], [106.68776, -6.15428], [106.68734, -6.15422], [106.6873, -6.14399], [106.68645, -6.144], [106.68676, -6.13699], [106.68595, -6.1279]]]}}, {"type": "Feature", "properties": {"domain_id": "317203", "name": "KOJA"}, "geometry": {"type": "Polygon", "coordinates": [[[106.91839, -6.12932], [106.91855, -6.13123], [106.91954, -6.13227], [106.91702, -6.13754], [106.91445, -6.13738], [106.91221, -6.14131], [106.90746, -6.1433], [106.90627, -6.14364], [106.90459, -6.14157], [106.90436, -6.13973], [106.90016, -6.13872], [106.89923, -6.14173], [106.892, -6.13777], [106.89236, -6.13365], [106.89372, -6.12956], [106.89322, -6.10754], [106.89153, -6.10748], [106.89166, -6.1066], [106.89237, -6.10685], [106.89273, -6.09737], [106.90515, -6.09786], [106.90522, -6.10702], [106.90681, -6.10872], [106.91062, -6.10897], [106.91744, -6.10827], [106.91694, -6.11864], [106.91885, -6.11867], [106.91888, -6.11963], [106.92068, -6.11905], [106.92099, -6.12211], [106.92167, -6.1224], [106.92252, -6.12451], [106.92315, -6.12395], [106.92361, -6.12467], [106.92136, -6.12658], [106.91972, -6.12658], [106.91839, -6.12932]]]}}, {"type": "Feature", "properties": {"domain_id": "317202", "name": "TANJUNG PRIOK"}, "geometry": {"type": "MultiPolygon", "coordinates": [[[[106.89069, -6.14327], [106.88868, -6.15043], [106.8814, -6.16252], [106.87693, -6.16349], [106.86036, -6.15378], [106.86121, -6.15129], [106.86049, -6.15], [106.85598, -6.15059], [106.85248, -6.13941], [106.85226, -6.13652], [106.84996, -6.13407], [106.84945, -6.13119], [106.84773, -6.12851], [106.84766, -6.12715], [106.85326, -6.12571], [106.86508, -6.12022], [106.86566, -6.11963], [106.86497, -6.11414], [106.86825, -6.11191], [106.87173, -6.11049], [106.87096, -6.11424], [106.87022, -6.11474], [106.87055, -6.11534], [106.87167, -6.11517], [106.87151, -6.11558], [106.8728, -6.1145], [106.87467, -6.10359], [106.87673, -6.1018], [106.87751, -6.1019], [106.87741, -6.10524], [106.87596, -6.11053], [106.87649, -6.11044], [106.87738, -6.10676], [106.87797, -6.1075], [106.87745, -6.11044], [106.87857, -6.10993], [106.87879, -6.10234], [106.88023, -6.10232], [106.87876, -6.10146], [106.87953, -6.09431], [106.87962, -6.09856], [106.88014, -6.09674], [106.88109, -6.09672], [106.88114, -6.09535], [106.88202, -6.09603], [106.88214, -6.09479], [106.88269, -6.09481], [106.88228, -6.10638], [106.88378, -6.10643], [106.8842, -6.09603], [106.88645, -6.09611], [106.88701, -6.09741], [106.88669, -6.10655], [106.88796, -6.10657], [106.8883, -6.09721], [106.89101, -6.09731], [106.89071, -6.10678], [106.89146, -6.10674], [106.89153, -6.10748], [106.89322, -6.10754], [106.89372, -6.12956], [106.89236, -6.13365], [106.89242, -6.13586], [106.89069, -6.14327]]], [[[106.87731, -6.09469], [106.87832, -6.09503], [106.87814, -6.09907], [106.87698, -6.10033], [106.87707, -6.09938], [106.87653, -6.09939], [106.87606, -6.10043], [106.87731, -6.09469]]]]}}, {"type": "Feature", "properties": {"domain_id": "317206", "name": "KELAPA GADING"}, "geometry": {"type": "Polygon", "coordinates": [[[106.90577, -6.18023], [106.90108, -6.17849], [106.89638, -6.178], [106.89117, -6.17324], [106.88135, -6.16726], [106.8789, -6.16642], [106.88868, -6.15043], [106.89198, -6.13775], [106.89923, -6.14173], [106.90016, -6.13872], [106.90436, -6.13973], [106.90459, -6.14157], [106.90627, -6.14364], [106.91221, -6.14131], [106.91445, -6.13738], [106.91691, -6.13765], [106.9155, -6.14491], [106.91742, -6.14814], [106.91759, -6.15176], [106.92149, -6.15874], [106.92203, -6.16088], [106.92039, -6.17014], [106.92192, -6.17803], [106.92164, -6.1805], [106.9225, -6.18312], [106.91203, -6.1827], [106.90577, -6.18023]]]}}, {"type": "Feature", "properties": {"domain_id": "310102", "name": "KEPULAUAN SERIBU SELATAN"}, "geometry": {"type": "MultiPolygon", "coordinates": [[[[106.48358, -5.79361], [106.49199, -5.79625], [106.49617, -5.79537], [106.49845, -5.79656], [106.49892, -5.79583], [106.50039, -5.79578], [106.49868, -5.79651], [106.4994, -5.79702], [106.50054, -5.79617], [106.49959, -5.797], [106.50032, -5.79772], [106.50062, -5.79669], [106.5012, -5.79607], [106.50068, -5.79835], [106.50681, -5.80151], [106.51085, -5.80212], [106.5116, -5.80303], [106.50257, -5.80029], [106.50173, -5.80022], [106.50139, -5.80087], [106.5011, -5.79994], [106.49884, -5.79915], [106.4976, -5.79914], [106.49746, -5.7997], [106.49844, -5.79986], [106.49794, -5.79996], [106.49735, -5.79971], [106.49749, -5.799], [106.49687, -5.79866], [106.48953, -5.79645], [106.48399, -5.79586], [106.47844, -5.79338], [106.48358, -5.79361]]], [[[106.63115, -5.85464], [106.62384, -5.85627], [106.62038, -5.85791], [106.61995, -5.85941], [106.61959, -5.85861], [106.61845, -5.85916], [106.61929, -5.85945], [106.61991, -5.86088], [106.6191, -5.8596], [106.61797, -5.85935], [106.61268, -5.86285], [106.60936, -5.86391], [106.61327, -5.86097], [106.61493, -5.85672], [106.61622, -5.85688], [106.6206, -5.85562], [106.62189, -5.85471], [106.63067, -5.8542], [106.63115, -5.85464]]], [[[106.69141, -5.97095], [106.69342, -5.97185], [106.69418, -5.97134], [106.69543, -5.97284], [106.69486, -5.97415], [106.69531, -5.97714], [106.69492, -5.97842], [106.69169, -5.97755], [106.68924, -5.97506], [106.68912, -5.97178], [106.69003, -5.97054], [106.69141, -5.97095]]], [[[106.70732, -5.9753], [106.71028, -5.97612], [106.71138, -5.9784], [106.71098, -5.97935], [106.71132, -5.97842], [106.71072, -5.97811], [106.7106, -5.97924], [106.70837, -5.98031], [106.70591, -5.97942], [106.70248, -5.97682], [106.7032, -5.97535], [106.70422, -5.975], [106.70732, -5.9753]]], [[[106.58584, -5.92701], [106.58816, -5.93215], [106.58966, -5.93251], [106.58775, -5.93403], [106.58819, -5.93483], [106.58775, -5.93505], [106.58642, -5.93115], [106.58474, -5.92934], [106.58349, -5.92967], [106.58389, -5.92917], [106.58281, -5.92831], [106.58315, -5.92947], [106.58247, -5.92887], [106.58285, -5.92786], [106.58187, -5.92625], [106.58392, -5.92545], [106.58584, -5.92701]]], [[[106.84647, -5.9578], [106.84579, -5.96052], [106.84232, -5.95807], [106.84129, -5.95653], [106.84239, -5.95507], [106.84379, -5.95462], [106.84713, -5.95649], [106.8472, -5.95733], [106.84647, -5.9578]]], [[[106.60612, -5.85572], [106.60622, -5.85601], [106.60573, -5.85634], [106.60881, -5.85605], [106.6086, -5.85868], [106.60575, -5.85899], [106.60509, -5.85979], [106.60134, -5.86087], [106.60131, -5.85875], [106.60178, -5.86018], [106.603, -5.85986], [106.60229, -5.85937], [106.60256, -5.85841], [106.60551, -5.85646], [106.60514, -5.85594], [106.60483, -5.85377], [106.60557, -5.85355], [106.60529, -5.85579], [106.60612, -5.85572]]], [[[106.55272, -5.82003], [106.55798, -5.8206], [106.55787, -5.82203], [106.55592, -5.82354], [106.55599, -5.82443], [106.55505, -5.82478], [106.55578, -5.8236], [106.55468, -5.82344], [106.55463, -5.82472], [106.55404, -5.82414], [106.55441, -5.82319], [106.54834, -5.82007], [106.55272, -5.82003]]], [[[106.5958, -5.93646], [106.59761, -5.93745], [106.59745, -5.93807], [106.59624, -5.93812], [106.59737, -5.93941], [106.59831, -5.93873], [106.59732, -5.9399], [106.59617, -5.93831], [106.59531, -5.93873], [106.59647, -5.94002], [106.59679, -5.93939], [106.59676, -5.9403], [106.59527, -5.94073], [106.5944, -5.93891], [106.59325, -5.93888], [106.59164, -5.93551], [106.59063, -5.93589], [106.59225, -5.93466], [106.5958, -5.93646]]], [[[106.52282, -5.80251], [106.52693, -5.80314], [106.53009, -5.80414], [106.52194, -5.80403], [106.52237, -5.8043], [106.52227, -5.80533], [106.52191, -5.80572], [106.52225, -5.80441], [106.52149, -5.80433], [106.5216, -5.80563], [106.52125, -5.8052], [106.52139, -5.80418], [106.52189, -5.80402], [106.51716, -5.80329], [106.51614, -5.8025], [106.52282, -5.80251]]], [[[106.52136, -5.95971], [106.51974, -5.96021], [106.51945, -5.95982], [106.51938, -5.95693], [106.51997, -5.95628], [106.51987, -5.95497], [106.52079, -5.95421], [106.52265, -5.9549], [106.52276, -5.95561], [106.52274, -5.95873], [106.52136, -5.95971]]], [[[106.63329, -5.94285], [106.63376, -5.94339], [106.63243, -5.94563], [106.62788, -5.94356], [106.62989, -5.94244], [106.63329, -5.94285]]], [[[106.73612, -6.03263], [106.73664, -6.03306], [106.73597, -6.03472], [106.73352, -6.03404], [106.73342, -6.03272], [106.73442, -6.03205], [106.73612, -6.03263]]], [[[106.74717, -6.03436], [106.74763, -6.03419], [106.74796, -6.03515], [106.7479, -6.03685], [106.74639, -6.0373], [106.74558, -6.03516], [106.74601, -6.03427], [106.74717, -6.03436]]], [[[106.78239, -6.00346], [106.78275, -6.00417], [106.78148, -6.00567], [106.77952, -6.00304], [106.78188, -6.00295], [106.78239, -6.00346]]]]}}, {"type": "Feature", "properties": {"domain_id": "310101", "name": "KEPULAUAN SERIBU UTARA"}, "geometry": {"type": "MultiPolygon", "coordinates": [[[[106.55253, -5.50056], [106.55427, -5.50002], [106.55678, -5.50039], [106.55725, -5.50115], [106.55651, -5.50207], [106.55408, -5.50308], [106.55286, -5.50217], [106.54951, -5.50254], [106.54439, -5.50496], [106.54267, -5.50495], [106.54675, -5.49957], [106.54739, -5.49995], [106.55039, -5.49943], [106.55091, -5.50026], [106.55253, -5.50056]]], [[[106.57351, -5.65293], [106.57562, -5.65328], [106.57605, -5.65184], [106.57804, -5.65228], [106.57816, -5.65133], [106.57755, -5.65104], [106.57762, -5.64985], [106.57765, -5.65103], [106.57824, -5.65118], [106.57821, -5.65149], [106.57884, -5.6516], [106.57918, -5.65022], [106.57894, -5.65191], [106.5781, -5.65228], [106.5811, -5.65322], [106.57931, -5.65411], [106.57941, -5.65607], [106.57921, -5.65456], [106.57871, -5.65456], [106.57871, -5.65527], [106.57897, -5.65533], [106.5791, -5.65631], [106.57864, -5.65539], [106.57857, -5.65435], [106.57836, -5.65421], [106.57431, -5.65314], [106.57386, -5.65333], [106.57414, -5.656], [106.57403, -5.65671], [106.57328, -5.65674], [106.57408, -5.65594], [106.5738, -5.65359], [106.57296, -5.65318], [106.56939, -5.65479], [106.56905, -5.6559], [106.56665, -5.65707], [106.56424, -5.65657], [106.56611, -5.65398], [106.5658, -5.65345], [106.56606, -5.65299], [106.56637, -5.6537], [106.56744, -5.65373], [106.56966, -5.65229], [106.57104, -5.65269], [106.57216, -5.65223], [106.57351, -5.65293]]], [[[106.58196, -5.61149], [106.57858, -5.61244], [106.57483, -5.61485], [106.57321, -5.6145], [106.57264, -5.61376], [106.57282, -5.61247], [106.57401, -5.611], [106.58285, -5.61033], [106.58196, -5.61149]]], [[[106.55835, -5.64629], [106.55414, -5.64744], [106.55311, -5.64672], [106.55865, -5.64471], [106.5595, -5.64343], [106.56071, -5.64308], [106.56085, -5.64357], [106.56198, -5.64322], [106.56225, -5.64369], [106.56782, -5.64252], [106.56731, -5.6437], [106.55835, -5.64629]]], [[[106.55042, -5.61753], [106.55056, -5.61682], [106.5541, -5.61428], [106.55541, -5.61464], [106.5565, -5.61612], [106.55621, -5.61714], [106.55184, -5.6189], [106.55068, -5.62055], [106.54923, -5.62084], [106.55042, -5.61753]]], [[[106.61157, -5.74938], [106.61193, -5.74746], [106.61143, -5.74693], [106.61171, -5.74621], [106.61214, -5.747], [106.61251, -5.74494], [106.61413, -5.74254], [106.61555, -5.74216], [106.61611, -5.74313], [106.61503, -5.74661], [106.61611, -5.74699], [106.6162, -5.74745], [106.61564, -5.74801], [106.61539, -5.74801], [106.61608, -5.74715], [106.61528, -5.74673], [106.61503, -5.74812], [106.61457, -5.74744], [106.61262, -5.74954], [106.61157, -5.74938]]], [[[106.55798, -5.46134], [106.55727, -5.46408], [106.55633, -5.46497], [106.55491, -5.46561], [106.55295, -5.46467], [106.55362, -5.46138], [106.55642, -5.46077], [106.55798, -5.46134]]], [[[106.54277, -5.70115], [106.53992, -5.70188], [106.5347, -5.70123], [106.53386, -5.70017], [106.53504, -5.69928], [106.54303, -5.69973], [106.54352, -5.70028], [106.54277, -5.70115]]], [[[106.57209, -5.45668], [106.57215, -5.45763], [106.56655, -5.46003], [106.56653, -5.45712], [106.57042, -5.45537], [106.57297, -5.45674], [106.57209, -5.45668]]], [[[106.54758, -5.58311], [106.54731, -5.58023], [106.54859, -5.5785], [106.55092, -5.57731], [106.5512, -5.5782], [106.55031, -5.57965], [106.54986, -5.58281], [106.54897, -5.58372], [106.54758, -5.58311]]], [[[106.58483, -5.6347], [106.58554, -5.63509], [106.58351, -5.63597], [106.57853, -5.6356], [106.57618, -5.63645], [106.5752, -5.63514], [106.57601, -5.63429], [106.57788, -5.63403], [106.57865, -5.63497], [106.58165, -5.63398], [106.58483, -5.6347]]], [[[106.49022, -5.42177], [106.49012, -5.42019], [106.49095, -5.41878], [106.49232, -5.41846], [106.49458, -5.41916], [106.49391, -5.4212], [106.49173, -5.42304], [106.49022, -5.42177]]], [[[106.53321, -5.51401], [106.53327, -5.51258], [106.5361, -5.51127], [106.53841, -5.51137], [106.53856, -5.51222], [106.53773, -5.51328], [106.53243, -5.51578], [106.53321, -5.51401]]], [[[106.54527, -5.55175], [106.54569, -5.55195], [106.54529, -5.55332], [106.54346, -5.55504], [106.54132, -5.55547], [106.54056, -5.55491], [106.5409, -5.55269], [106.54319, -5.5516], [106.54527, -5.55175]]], [[[106.39344, -5.47993], [106.39339, -5.4805], [106.39205, -5.481], [106.39052, -5.47964], [106.39059, -5.47871], [106.39167, -5.47758], [106.39497, -5.47754], [106.39525, -5.4784], [106.39359, -5.47987], [106.39379, -5.48031], [106.39344, -5.47993]]], [[[106.60315, -5.74144], [106.60117, -5.73944], [106.59991, -5.73978], [106.59789, -5.73853], [106.5996, -5.73755], [106.60202, -5.7374], [106.60395, -5.74269], [106.60315, -5.74144]]], [[[106.59244, -5.58489], [106.5914, -5.58728], [106.58992, -5.58783], [106.58787, -5.58727], [106.58995, -5.58479], [106.59221, -5.58415], [106.59244, -5.58489]]], [[[106.54405, -5.52955], [106.54024, -5.53179], [106.5393, -5.53172], [106.54111, -5.52834], [106.54403, -5.52819], [106.54405, -5.52955]]], [[[106.52663, -5.56761], [106.52945, -5.56809], [106.52837, -5.57049], [106.52715, -5.57053], [106.525, -5.56745], [106.52663, -5.56761]]], [[[106.46313, -5.20314], [106.462, -5.20401], [106.46088, -5.20832], [106.4611, -5.20636], [106.46037, -5.20643], [106.46063, -5.20704], [106.46055, -5.208], [106.46036, -5.20838], [106.46047, -5.20736], [106.45935, -5.20588], [106.45952, -5.20379], [106.46251, -5.20244], [106.46312, -5.20245], [106.46313, -5.20314]]], [[[106.53912, -5.57446], [106.54116, -5.57116], [106.54272, -5.57071], [106.54329, -5.57121], [106.54318, -5.57267], [106.54152, -5.57431], [106.53912, -5.57446]]], [[[106.53303, -5.53745], [106.52979, -5.53766], [106.53457, -5.53499], [106.53635, -5.53469], [106.53589, -5.53603], [106.53303, -5.53745]]], [[[106.58033, -5.49198], [106.57844, -5.4942], [106.57632, -5.49509], [106.57613, -5.49364], [106.57685, -5.4921], [106.57821, -5.49161], [106.58033, -5.49198]]], [[[106.58253, -5.67041], [106.57923, -5.67136], [106.57878, -5.67102], [106.58015, -5.66935], [106.58489, -5.66915], [106.58423, -5.67008], [106.58253, -5.67041]]], [[[106.56168, -5.59387], [106.5598, -5.59532], [106.55714, -5.59606], [106.55664, -5.59554], [106.56051, -5.59254], [106.56191, -5.59315], [106.56223, -5.59376], [106.56168, -5.59387]]], [[[106.52363, -5.47773], [106.52684, -5.47622], [106.52744, -5.47606], [106.52473, -5.47942], [106.52256, -5.47949], [106.52234, -5.47885], [106.52363, -5.47773]]], [[[106.58439, -5.61867], [106.58548, -5.6193], [106.5853, -5.62016], [106.58353, -5.62095], [106.58157, -5.62062], [106.58215, -5.61915], [106.58439, -5.61867]]], [[[106.56542, -5.66319], [106.5687, -5.66062], [106.57033, -5.66079], [106.56642, -5.66381], [106.56529, -5.66366], [106.56542, -5.66319]]], [[[106.47034, -5.41325], [106.47194, -5.41213], [106.4733, -5.41285], [106.471, -5.41568], [106.47026, -5.415], [106.47034, -5.41325]]], [[[106.60101, -5.73608], [106.59866, -5.73543], [106.6006, -5.73408], [106.6033, -5.73424], [106.60296, -5.73523], [106.60101, -5.73608]]], [[[106.59613, -5.58083], [106.59325, -5.58108], [106.59262, -5.57991], [106.59526, -5.57901], [106.59651, -5.58009], [106.59613, -5.58083]]], [[[106.56701, -5.59308], [106.56689, -5.59225], [106.5678, -5.59159], [106.57018, -5.59196], [106.56858, -5.59394], [106.56701, -5.59308]]], [[[106.54711, -5.58674], [106.54825, -5.58752], [106.54645, -5.58868], [106.5442, -5.58698], [106.54492, -5.58651], [106.54711, -5.58674]]], [[[106.55756, -5.57269], [106.55586, -5.57235], [106.55567, -5.57146], [106.55768, -5.57103], [106.55981, -5.57187], [106.55905, -5.5728], [106.55756, -5.57269]]], [[[106.53169, -5.50284], [106.5318, -5.5017], [106.53301, -5.5014], [106.53504, -5.5026], [106.53431, -5.50359], [106.53169, -5.50284]]], [[[106.58197, -5.76406], [106.58255, -5.76251], [106.58349, -5.76188], [106.58359, -5.76053], [106.58409, -5.76044], [106.58438, -5.76245], [106.58344, -5.7654], [106.58278, -5.76537], [106.58197, -5.76406]]], [[[106.54448, -5.60584], [106.54503, -5.60617], [106.54283, -5.6058], [106.54431, -5.60429], [106.54666, -5.60381], [106.54579, -5.60557], [106.54448, -5.60584]]], [[[106.5258, -5.51333], [106.52644, -5.51261], [106.5278, -5.51245], [106.52912, -5.5136], [106.52873, -5.51432], [106.52745, -5.51455], [106.5258, -5.51333]]], [[[106.5191, -5.55132], [106.5181, -5.55095], [106.51823, -5.55016], [106.52076, -5.54881], [106.52051, -5.55071], [106.5191, -5.55132]]], [[[106.54759, -5.62378], [106.54814, -5.62435], [106.54741, -5.6249], [106.54431, -5.62496], [106.54365, -5.62439], [106.54458, -5.62357], [106.54759, -5.62378]]], [[[106.55481, -5.59006], [106.55152, -5.59092], [106.5509, -5.58985], [106.55526, -5.58903], [106.55567, -5.58959], [106.55481, -5.59006]]], [[[106.58023, -5.57718], [106.57979, -5.57609], [106.58103, -5.57426], [106.58234, -5.57584], [106.58023, -5.57718]]], [[[106.52955, -5.55046], [106.52724, -5.5507], [106.52642, -5.55015], [106.52718, -5.54939], [106.52948, -5.54909], [106.53005, -5.54981], [106.52955, -5.55046]]], [[[106.5241, -5.52237], [106.52564, -5.52099], [106.52663, -5.52194], [106.52551, -5.52326], [106.5241, -5.52237]]]]}}]}